{"type": "FeatureCollection", "features": [ {"type": "Feature", "properties": {"norad_id": 41774, "name": "SKYSAT-C3", "group": "resource", "lat": 48.2031538709261, "lon": 5.1127185539443225, "alt_km": 429.4931242262992, "timestamp": "2025-12-04T19:33:59.288770+00:00", "meta": {"OBJECT_NAME": "SKYSAT-C3", "OBJECT_ID": "2016-058E", "EPOCH": "2025-12-04T02:14:46.368672", "MEAN_MOTION": 15.43936527, "ECCENTRICITY": 0.00013715, "INCLINATION": 96.9308, "RA_OF_ASC_NODE": 12.2453, "ARG_OF_PERICENTER": 99.1498, "MEAN_ANOMALY": 260.9907, "EPHEMERIS_TYPE": 0, "CLASSIFICATION_TYPE": "U", "NORAD_CAT_ID": 41774, "ELEMENT_SET_NO": 999, "REV_AT_EPOCH": 51592, "BSTAR": 0.00075718839, "MEAN_MOTION_DOT": 0.0003446, "MEAN_MOTION_DDOT": 0}, "tle": {"line1": "1 41774U 16058E   25338.09359223  .00034460  00000+0  75719-3 0  9995", "line2": "2 41774  96.9308  12.2453 0001371  99.1498 260.9907 15.43936527515929"}}, "geometry": {"type": "Point", "coordinates": [5.1127185539443225, 48.2031538709261]}}, {"type": "Feature", "properties": {"norad_id": 41785, "name": "ALSAT 1B", "group": "resource", "lat": 18.55054497474646, "lon": 173.5772618809519, "alt_km": 648.8023095014223, "timestamp": "2025-12-04T19:33:59.288779+00:00", "meta": {"OBJECT_NAME": "ALSAT 1B", "OBJECT_ID": "2016-059C", "EPOCH": "2025-12-04T07:25:04.696032", "MEAN_MOTION": 14.72062156, "ECCENTRICITY": 0.00104284, "INCLINATION": 97.7819, "RA_OF_ASC_NODE": 350.4626, "ARG_OF_PERICENTER": 127.6998, "MEAN_ANOMALY": 232.5157, "EPHEMERIS_TYPE": 0, "CLASSIFICATION_TYPE": "U", "NORAD_CAT_ID": 41785, "ELEMENT_SET_NO": 999, "REV_AT_EPOCH": 49190, "BSTAR": 0.00015514104, "MEAN_MOTION_DOT": 9.29e-06, "MEAN_MOTION_DDOT": 0}, "tle": {"line1": "1 41785U 16059C   25338.30908213  .00000929  00000+0  15514-3 0  9991", "line2": "2 41785  97.7819 350.4626 0010428 127.6998 232.5157 14.72062156491903"}}, "geometry": {"type": "Point", "coordinates": [173.5772618809519, 18.55054497474646]}}, {"type": "Feature", "properties": {"norad_id": 41787, "name": "PATHFINDER 1", "group": "resource", "lat": 14.63234366288971, "lon": -20.097893839197116, "alt_km": 670.6626294567004, "timestamp": "2025-12-04T19:33:59.288788+00:00", "meta": {"OBJECT_NAME": "PATHFINDER 1", "OBJECT_ID": "2016-059E", "EPOCH": "2025-12-04T06:24:22.015008", "MEAN_MOTION": 14.67298985, "ECCENTRICITY": 0.00299806, "INCLINATION": 97.8138, "RA_OF_ASC_NODE": 341.4338, "ARG_OF_PERICENTER": 106.9303, "MEAN_ANOMALY": 253.5193, "EPHEMERIS_TYPE": 0, "CLASSIFICATION_TYPE": "U", "NORAD_CAT_ID": 41787, "ELEMENT_SET_NO": 999, "REV_AT_EPOCH": 49112, "BSTAR": 0.00028403754, "MEAN_MOTION_DOT": 1.567e-05, "MEAN_MOTION_DDOT": 0}, "tle": {"line1": "1 41787U 16059E   25338.26692147  .00001567  00000+0  28404-3 0  9995", "line2": "2 41787  97.8138 341.4338 0029980 106.9303 253.5193 14.67298985491125"}}, "geometry": {"type": "Point", "coordinates": [-20.097893839197116, 14.63234366288971]}}, {"type": "Feature", "properties": {"norad_id": 41790, "name": "SCATSAT 1", "group": "resource", "lat": 35.884750421357126, "lon": 29.43735838377972, "alt_km": 647.8043822452355, "timestamp": "2025-12-04T19:33:59.288797+00:00", "meta": {"OBJECT_NAME": "SCATSAT 1", "OBJECT_ID": "2016-059H", "EPOCH": "2025-12-04T03:09:47.807712", "MEAN_MOTION": 14.78889586, "ECCENTRICITY": 0.00558089, "INCLINATION": 98.1477, "RA_OF_ASC_NODE": 34.6947, "ARG_OF_PERICENTER": 155.3473, "MEAN_ANOMALY": 205.0424, "EPHEMERIS_TYPE": 0, "CLASSIFICATION_TYPE": "U", "NORAD_CAT_ID": 41790, "ELEMENT_SET_NO": 999, "REV_AT_EPOCH": 7275, "BSTAR": 0.00049552348, "MEAN_MOTION_DOT": 3.692e-05, "MEAN_MOTION_DDOT": 0}, "tle": {"line1": "1 41790U 16059H   25338.13180333  .00003692  00000+0  49552-3 0  9992", "line2": "2 41790  98.1477  34.6947 0055808 155.3473 205.0424 14.78889586 72758"}}, "geometry": {"type": "Point", "coordinates": [29.43735838377972, 35.884750421357126]}}, {"type": "Feature", "properties": {"norad_id": 41875, "name": "GOKTURK 1A", "group": "resource", "lat": -41.06198020368978, "lon": 44.12078505643837, "alt_km": 691.5570720696414, "timestamp": "2025-12-04T19:33:59.288806+00:00", "meta": {"OBJECT_NAME": "GOKTURK 1A", "OBJECT_ID": "2016-073A", "EPOCH": "2025-12-04T07:03:54.678240", "MEAN_MOTION": 14.62764917, "ECCENTRICITY": 0.00012978, "INCLINATION": 98.1432, "RA_OF_ASC_NODE": 230.7728, "ARG_OF_PERICENTER": 79.2118, "MEAN_ANOMALY": 280.923, "EPHEMERIS_TYPE": 0, "CLASSIFICATION_TYPE": "U", "NORAD_CAT_ID": 41875, "ELEMENT_SET_NO": 999, "REV_AT_EPOCH": 48033, "BSTAR": 0.00041066435, "MEAN_MOTION_DOT": 2.047e-05, "MEAN_MOTION_DDOT": 0}, "tle": {"line1": "1 41875U 16073A   25338.29438285  .00002047  00000+0  41066-3 0  9996", "line2": "2 41875  98.1432 230.7728 0001297  79.2118 280.9230 14.62764917480339"}}, "geometry": {"type": "Point", "coordinates": [44.12078505643837, -41.06198020368978]}}, {"type": "Feature", "properties": {"norad_id": 41877, "name": "RESOURCESAT-2A", "group": "resource", "lat": 2.8551891873552306, "lon": 48.27568900203608, "alt_km": 822.1818669284539, "timestamp": "2025-12-04T19:33:59.288815+00:00", "meta": {"OBJECT_NAME": "RESOURCESAT-2A", "OBJECT_ID": "2016-074A", "EPOCH": "2025-12-04T07:43:42.748320", "MEAN_MOTION": 14.21594065, "ECCENTRICITY": 0.00011581, "INCLINATION": 98.7767, "RA_OF_ASC_NODE": 48.2268, "ARG_OF_PERICENTER": 296.8341, "MEAN_ANOMALY": 63.2718, "EPHEMERIS_TYPE": 0, "CLASSIFICATION_TYPE": "U", "NORAD_CAT_ID": 41877, "ELEMENT_SET_NO": 999, "REV_AT_EPOCH": 46661, "BSTAR": 0.00018101707, "MEAN_MOTION_DOT": 3.52e-06, "MEAN_MOTION_DDOT": 0}, "tle": {"line1": "1 41877U 16074A   25338.32202255  .00000352  00000+0  18102-3 0  9991", "line2": "2 41877  98.7767  48.2268 0001158 296.8341  63.2718 14.21594065466618"}}, "geometry": {"type": "Point", "coordinates": [48.27568900203608, 2.8551891873552306]}}, {"type": "Feature", "properties": {"norad_id": 41948, "name": "CARTOSAT-2D", "group": "resource", "lat": 68.6091481326964, "lon": -124.07838086782118, "alt_km": 500.7416769295969, "timestamp": "2025-12-04T19:33:59.288825+00:00", "meta": {"OBJECT_NAME": "CARTOSAT-2D", "OBJECT_ID": "2017-008A", "EPOCH": "2025-12-04T08:01:08.749056", "MEAN_MOTION": 15.19363993, "ECCENTRICITY": 0.00049467, "INCLINATION": 97.4401, "RA_OF_ASC_NODE": 35.9594, "ARG_OF_PERICENTER": 195.4813, "MEAN_ANOMALY": 164.6272, "EPHEMERIS_TYPE": 0, "CLASSIFICATION_TYPE": "U", "NORAD_CAT_ID": 41948, "ELEMENT_SET_NO": 999, "REV_AT_EPOCH": 48799, "BSTAR": 3.131422e-06, "MEAN_MOTION_DOT": -1e-08, "MEAN_MOTION_DDOT": 0}, "tle": {"line1": "1 41948U 17008A   25338.33412904 -.00000001  00000+0  31314-5 0  9997", "line2": "2 41948  97.4401  35.9594 0004946 195.4813 164.6272 15.19363993487996"}}, "geometry": {"type": "Point", "coordinates": [-124.07838086782118, 68.6091481326964]}}, {"type": "Feature", "properties": {"norad_id": 42063, "name": "SENTINEL-2B", "group": "resource", "lat": 67.45871100943363, "lon": 30.061379478826993, "alt_km": 781.7165973624988, "timestamp": "2025-12-04T19:33:59.288834+00:00", "meta": {"OBJECT_NAME": "SENTINEL-2B", "OBJECT_ID": "2017-013A", "EPOCH": "2025-12-04T07:29:47.535072", "MEAN_MOTION": 14.30811045, "ECCENTRICITY": 0.00011189, "INCLINATION": 98.5726, "RA_OF_ASC_NODE": 50.8764, "ARG_OF_PERICENTER": 98.1992, "MEAN_ANOMALY": 261.9318, "EPHEMERIS_TYPE": 0, "CLASSIFICATION_TYPE": "U", "NORAD_CAT_ID": 42063, "ELEMENT_SET_NO": 999, "REV_AT_EPOCH": 45677, "BSTAR": 0.00015179396, "MEAN_MOTION_DOT": 3.54e-06, "MEAN_MOTION_DDOT": 0}, "tle": {"line1": "1 42063U 17013A   25338.31235573  .00000354  00000+0  15179-3 0  9994", "line2": "2 42063  98.5726  50.8764 0001118  98.1992 261.9318 14.30811045456779"}}, "geometry": {"type": "Point", "coordinates": [30.061379478826993, 67.45871100943363]}}, {"type": "Feature", "properties": {"norad_id": 42767, "name": "CARTOSAT-2E", "group": "resource", "lat": 19.130567075345322, "lon": 33.90120190746157, "alt_km": 508.80769033030083, "timestamp": "2025-12-04T19:33:59.288842+00:00", "meta": {"OBJECT_NAME": "CARTOSAT-2E", "OBJECT_ID": "2017-036C", "EPOCH": "2025-12-04T08:24:58.419360", "MEAN_MOTION": 15.19189804, "ECCENTRICITY": 0.00022621, "INCLINATION": 97.4574, "RA_OF_ASC_NODE": 36.0468, "ARG_OF_PERICENTER": 281.4074, "MEAN_ANOMALY": 78.6906, "EPHEMERIS_TYPE": 0, "CLASSIFICATION_TYPE": "U", "NORAD_CAT_ID": 42767, "ELEMENT_SET_NO": 999, "REV_AT_EPOCH": 46856, "BSTAR": 0.00058049619, "MEAN_MOTION_DOT": 0.00012157, "MEAN_MOTION_DDOT": 0}, "tle": {"line1": "1 42767U 17036C   25338.35067615  .00012157  00000+0  58050-3 0  9993", "line2": "2 42767  97.4574  36.0468 0002262 281.4074  78.6906 15.19189804468560"}}, "geometry": {"type": "Point", "coordinates": [33.90120190746157, 19.130567075345322]}}, {"type": "Feature", "properties": {"norad_id": 42920, "name": "FORMOSAT-5", "group": "resource", "lat": -35.83226900397053, "lon": -132.71969047205224, "alt_km": 730.6892951074187, "timestamp": "2025-12-04T19:33:59.288852+00:00", "meta": {"OBJECT_NAME": "FORMOSAT-5", "OBJECT_ID": "2017-049A", "EPOCH": "2025-12-04T06:59:14.554752", "MEAN_MOTION": 14.5099774, "ECCENTRICITY": 0.00102626, "INCLINATION": 98.2462, "RA_OF_ASC_NODE": 52.7774, "ARG_OF_PERICENTER": 323.825, "MEAN_ANOMALY": 36.225, "EPHEMERIS_TYPE": 0, "CLASSIFICATION_TYPE": "U", "NORAD_CAT_ID": 42920, "ELEMENT_SET_NO": 999, "REV_AT_EPOCH": 43841, "BSTAR": 0.00015149193, "MEAN_MOTION_DOT": 5.55e-06, "MEAN_MOTION_DDOT": 0}, "tle": {"line1": "1 42920U 17049A   25338.29114068  .00000555  00000+0  15149-3 0  9997", "line2": "2 42920  98.2462  52.7774 0010262 323.8250  36.2250 14.50997740438410"}}, "geometry": {"type": "Point", "coordinates": [-132.71969047205224, -35.83226900397053]}}]}